[
    {
        "Altitude(m)": 579673.3614036113,
        "Argument of Periapsis(deg)": -0.015068773855314936,
        "Eccentricity": 0.0,
        "Inclination(deg)": 97.0,
        "Latitude(deg)": -42.25572576791382,
        "Longitude(deg)": 132.07723933139968,
        "Mean Anomaly(deg)": 222.3887955127917,
        "RAAN(deg)": 60.00396470241234,
        "Satellite Name": "Starlink Shell 3 1732",
        "Satellite Number": 1732,
        "Semi-Major Axis(m)": 6938478.169268562,
        "Time(s)": 380
    },
    {
        "Altitude(m)": 579927.7302493883,
        "Argument of Periapsis(deg)": -0.015465320535717962,
        "Eccentricity": 0.0,
        "Inclination(deg)": 97.0,
        "Latitude(deg)": -42.87166856347237,
        "Longitude(deg)": 131.8960211094539,
        "Mean Anomaly(deg)": 223.01427171049667,
        "RAAN(deg)": 60.00406903668634,
        "Satellite Name": "Starlink Shell 3 1732",
        "Satellite Number": 1732,
        "Semi-Major Axis(m)": 6938478.169268562,
        "Time(s)": 390
    },
    {
        "Altitude(m)": 580181.751983783,
        "Argument of Periapsis(deg)": -0.015861867216120987,
        "Eccentricity": 0.0,
        "Inclination(deg)": 97.0,
        "Latitude(deg)": -43.487343782906905,
        "Longitude(deg)": 131.71201181846916,
        "Mean Anomaly(deg)": 223.6397479082018,
        "RAAN(deg)": 60.00417337096035,
        "Satellite Name": "Starlink Shell 3 1732",
        "Satellite Number": 1732,
        "Semi-Major Axis(m)": 6938478.169268562,
        "Time(s)": 400
    },
    {
        "Altitude(m)": 580435.3269242536,
        "Argument of Periapsis(deg)": -0.01625841389652401,
        "Eccentricity": 0.0,
        "Inclination(deg)": 97.0,
        "Latitude(deg)": -44.10274419055034,
        "Longitude(deg)": 131.52509418630785,
        "Mean Anomaly(deg)": 224.26522410590678,
        "RAAN(deg)": 60.00427770523436,
        "Satellite Name": "Starlink Shell 3 1732",
        "Satellite Number": 1732,
        "Semi-Major Axis(m)": 6938478.169268562,
        "Time(s)": 410
    },
    {
        "Altitude(m)": 580688.3554260277,
        "Argument of Periapsis(deg)": -0.016654960576927034,
        "Eccentricity": 0.0,
        "Inclination(deg)": 97.0,
        "Latitude(deg)": -44.717862209946915,
        "Longitude(deg)": 131.33514431996042,
        "Mean Anomaly(deg)": 224.89070030361182,
        "RAAN(deg)": 60.00438203950837,
        "Satellite Name": "Starlink Shell 3 1732",
        "Satellite Number": 1732,
        "Semi-Major Axis(m)": 6938478.169268562,
        "Time(s)": 420
    },
    {
        "Altitude(m)": 580940.7379268507,
        "Argument of Periapsis(deg)": -0.01705150725733006,
        "Eccentricity": 0.0,
        "Inclination(deg)": 97.0,
        "Latitude(deg)": -45.33268989769972,
        "Longitude(deg)": 131.14203179775905,
        "Mean Anomaly(deg)": 225.51617650131686,
        "RAAN(deg)": 60.004486373782385,
        "Satellite Name": "Starlink Shell 3 1732",
        "Satellite Number": 1732,
        "Semi-Major Axis(m)": 6938478.169268562,
        "Time(s)": 430
    },
    {
        "Altitude(m)": 581192.3749916465,
        "Argument of Periapsis(deg)": -0.017448053937733084,
        "Eccentricity": 0.0,
        "Inclination(deg)": 97.0,
        "Latitude(deg)": -45.94721891516908,
        "Longitude(deg)": 130.9456197284712,
        "Mean Anomaly(deg)": 226.1416526990219,
        "RAAN(deg)": 60.00459070805639,
        "Satellite Name": "Starlink Shell 3 1732",
        "Satellite Number": 1732,
        "Semi-Major Axis(m)": 6938478.169268562,
        "Time(s)": 440
    },
    {
        "Altitude(m)": 581443.1673570721,
        "Argument of Periapsis(deg)": -0.017844600618136107,
        "Eccentricity": 0.0,
        "Inclination(deg)": 97.0,
        "Latitude(deg)": -46.56144049781411,
        "Longitude(deg)": 130.74576326127755,
        "Mean Anomaly(deg)": 226.767128896727,
        "RAAN(deg)": 60.00469504233039,
        "Satellite Name": "Starlink Shell 3 1732",
        "Satellite Number": 1732,
        "Semi-Major Axis(m)": 6938478.169268562,
        "Time(s)": 450
    },
    {
        "Altitude(m)": 581693.0159759524,
        "Argument of Periapsis(deg)": -0.018241147298539134,
        "Eccentricity": 0.0,
        "Inclination(deg)": 97.0,
        "Latitude(deg)": -47.17534542195293,
        "Longitude(deg)": 130.54230956891215,
        "Mean Anomaly(deg)": 227.39260509443204,
        "RAAN(deg)": 60.0047993766044,
        "Satellite Name": "Starlink Shell 3 1732",
        "Satellite Number": 1732,
        "Semi-Major Axis(m)": 6938478.169268562,
        "Time(s)": 460
    },
    {
        "Altitude(m)": 581941.822061546,
        "Argument of Periapsis(deg)": -0.018637693978942157,
        "Eccentricity": 0.0,
        "Inclination(deg)": 97.0,
        "Latitude(deg)": -47.78892396868815,
        "Longitude(deg)": 130.3350977872503,
        "Mean Anomaly(deg)": 228.01808129213708,
        "RAAN(deg)": 60.004903710878416,
        "Satellite Name": "Starlink Shell 3 1732",
        "Satellite Number": 1732,
        "Semi-Major Axis(m)": 6938478.169268562,
        "Time(s)": 470
    },
    {
        "Altitude(m)": 582189.4871316596,
        "Argument of Periapsis(deg)": -0.019034240659345183,
        "Eccentricity": 0.0,
        "Inclination(deg)": 97.0,
        "Latitude(deg)": -48.40216588471231,
        "Longitude(deg)": 130.12395739420785,
        "Mean Anomaly(deg)": 228.64355748984212,
        "RAAN(deg)": 60.00500804515242,
        "Satellite Name": "Starlink Shell 3 1732",
        "Satellite Number": 1732,
        "Semi-Major Axis(m)": 6938478.169268562,
        "Time(s)": 480
    },
    {
        "Altitude(m)": 582435.9130525667,
        "Argument of Periapsis(deg)": -0.019430787339748207,
        "Eccentricity": 0.0,
        "Inclination(deg)": 97.0,
        "Latitude(deg)": -49.01506033968434,
        "Longitude(deg)": 129.9087080489462,
        "Mean Anomaly(deg)": 229.26903368754714,
        "RAAN(deg)": 60.00511237942644,
        "Satellite Name": "Starlink Shell 3 1732",
        "Satellite Number": 1732,
        "Semi-Major Axis(m)": 6938478.169268562,
        "Time(s)": 490
    },
    {
        "Altitude(m)": 582681.0020827075,
        "Argument of Periapsis(deg)": -0.019827334020151237,
        "Eccentricity": 0.0,
        "Inclination(deg)": 97.0,
        "Latitude(deg)": -49.62759587982367,
        "Longitude(deg)": 129.68915937322805,
        "Mean Anomaly(deg)": 229.89450988525218,
        "RAAN(deg)": 60.005216713700435,
        "Satellite Name": "Starlink Shell 3 1732",
        "Satellite Number": 1732,
        "Semi-Major Axis(m)": 6938478.169268562,
        "Time(s)": 500
    },
    {
        "Altitude(m)": 582924.6569161847,
        "Argument of Periapsis(deg)": -0.020223880700554257,
        "Eccentricity": 0.0,
        "Inclination(deg)": 97.0,
        "Latitude(deg)": -50.2397603773281,
        "Longitude(deg)": 129.4651091561632,
        "Mean Anomaly(deg)": 230.51998608295725,
        "RAAN(deg)": 60.00532104797445,
        "Satellite Name": "Starlink Shell 3 1732",
        "Satellite Number": 1732,
        "Semi-Major Axis(m)": 6938478.169268562,
        "Time(s)": 510
    },
    {
        "Altitude(m)": 583166.7807260047,
        "Argument of Periapsis(deg)": -0.020620427380957283,
        "Eccentricity": 0.0,
        "Inclination(deg)": 97.0,
        "Latitude(deg)": -50.85154097517983,
        "Longitude(deg)": 129.2363430015078,
        "Mean Anomaly(deg)": 231.1454622806623,
        "RAAN(deg)": 60.005425382248454,
        "Satellite Name": "Starlink Shell 3 1732",
        "Satellite Number": 1732,
        "Semi-Major Axis(m)": 6938478.169268562,
        "Time(s)": 520
    },
    {
        "Altitude(m)": 583407.2772070189,
        "Argument of Periapsis(deg)": -0.021016974061360306,
        "Eccentricity": 0.0,
        "Inclination(deg)": 97.0,
        "Latitude(deg)": -51.462924026845315,
        "Longitude(deg)": 129.00263389729483,
        "Mean Anomaly(deg)": 231.77093847836733,
        "RAAN(deg)": 60.005529716522474,
        "Satellite Name": "Starlink Shell 3 1732",
        "Satellite Number": 1732,
        "Semi-Major Axis(m)": 6938478.169268562,
        "Time(s)": 530
    },
    {
        "Altitude(m)": 583646.0506186397,
        "Argument of Periapsis(deg)": -0.021413520741763333,
        "Eccentricity": 0.0,
        "Inclination(deg)": 97.0,
        "Latitude(deg)": -52.073895030314496,
        "Longitude(deg)": 128.76374018669637,
        "Mean Anomaly(deg)": 232.39641467607237,
        "RAAN(deg)": 60.00563405079649,
        "Satellite Name": "Starlink Shell 3 1732",
        "Satellite Number": 1732,
        "Semi-Major Axis(m)": 6938478.169268562,
        "Time(s)": 540
    },
    {
        "Altitude(m)": 583883.0058272016,
        "Argument of Periapsis(deg)": -0.021810067422166356,
        "Eccentricity": 0.0,
        "Inclination(deg)": 97.0,
        "Latitude(deg)": -52.68443855585977,
        "Longitude(deg)": 128.51940495663382,
        "Mean Anomaly(deg)": 233.0218908737774,
        "RAAN(deg)": 60.005738385070494,
        "Satellite Name": "Starlink Shell 3 1732",
        "Satellite Number": 1732,
        "Semi-Major Axis(m)": 6938478.169268562,
        "Time(s)": 550
    },
    {
        "Altitude(m)": 584118.048348033,
        "Argument of Periapsis(deg)": -0.022206614102569383,
        "Eccentricity": 0.0,
        "Inclination(deg)": 97.0,
        "Latitude(deg)": -53.29453816681204,
        "Longitude(deg)": 128.2693553209115,
        "Mean Anomaly(deg)": 233.64736707148245,
        "RAAN(deg)": 60.0058427193445,
        "Satellite Name": "Starlink Shell 3 1732",
        "Satellite Number": 1732,
        "Semi-Major Axis(m)": 6938478.169268562,
        "Time(s)": 560
    }
]